*******************************************************************************
 Revised: Jun 17, 2016             Oberon  / (Uranus)                       704

 SATELLITE PHYSICAL PROPERTIES:
  Radius (km)           = 761.4  +- 2.6     Density (g cm^-3)   =  1.63 +- 0.05
  Mass (10^20 kg )      =  30.14 +- 0.75    Geometric Albedo    =  0.24 
                                            V(1,0)              = +1.23

 SATELLITE ORBITAL DATA:
  Semi-major axis, a (km) = 582.6 (10^3)    Orbital period      = 13.463 d
  Eccentricity, e         =   0.0008        Rotational period   = Synchronous
  Inclination, i  (deg)   =   0.10
*******************************************************************************
 

 

*******************************************************************************
Ephemeris / WWW_USER Thu Dec 26 16:01:36 2019 Pasadena, USA      / Horizons    
*******************************************************************************
Target body name: Oberon (704)                    {source: ura111}
Center body name: Sun (10)                        {source: DE431mx}
Center-site name: BODY CENTER
*******************************************************************************
Start time      : A.D. 2019-Dec-26 00:00:00.0000 TDB
Stop  time      : A.D. 2020-Jan-25 00:00:00.0000 TDB
Step-size       : 1440 minutes
*******************************************************************************
Center geodetic : 0.00000000,0.00000000,0.0000000 {E-lon(deg),Lat(deg),Alt(km)}
Center cylindric: 0.00000000,0.00000000,0.0000000 {E-lon(deg),Dxy(km),Dz(km)}
Center radii    : 696000.0 x 696000.0 x 696000.0 k{Equator, meridian, pole}    
Keplerian GM    : 1.3271244024726273E+11 km^3/s^2
Output units    : KM-S, deg                                                    
Output type     : GEOMETRIC osculating elements
Output format   : 10
Reference frame : ICRF/J2000.0                                                 
Coordinate systm: Ecliptic and Mean Equinox of Reference Epoch                 
*******************************************************************************
            JDTDB,            Calendar Date (TDB),                     EC,                     QR,                     IN,                     OM,                      W,                     Tp,                      N,                     MA,                     TA,                      A,                     AD,                     PR,
**************************************************************************************************************************************************************************************************************************************************************************************************************************************************
$$SOE
2458843.500000000, A.D. 2019-Dec-26 00:00:00.0000,  1.507569662428280E-01,  2.443024203431967E+09,  2.631423575029661E+01,  3.595757280554943E+01,  2.488582552123393E+02, -6.891906702196431E+08,  1.352803708142294E-07,  9.323396942902059E+01,  1.100559773584942E+02,  2.876707969712368E+09,  3.310391735992769E+09,  2.661139955732096E+09,
2458844.500000000, A.D. 2019-Dec-27 00:00:00.0000,  4.187076059481350E-01,  1.317077763820408E+09,  2.202360080745351E+01,  3.617292916467854E+01,  2.067156790584816E+02, -6.264194138679570E+08,  1.935322225061048E-07,  1.212323413868372E+02,  1.520118081655324E+02,  2.265774982259433E+09,  3.214472200698458E+09,  1.860155354691099E+09,
2458845.500000000, A.D. 2019-Dec-28 00:00:00.0000,  5.969595500372299E-01,  8.067276745653764E+08,  8.909832372219562E+00,  3.803148599613719E+01,  1.956239173881602E+02, -5.297898152946053E+08,  2.330831984574485E-07,  1.234851046590475E+02,  1.613085859182802E+02,  2.001604738779683E+09,  3.196481802993989E+09,  1.544512870865385E+09,
2458846.500000000, A.D. 2019-Dec-29 00:00:00.0000,  6.056680997344545E-01,  7.736520405094055E+08,  1.015412511245772E+01,  2.123552543685429E+02,  1.908987948608772E+01, -5.369918416290550E+08,  2.401888286794206E-07,  1.289794414512876E+02,  1.636050767528075E+02,  1.961931154919051E+09,  3.150210269328697E+09,  1.498820748572329E+09,
2458847.500000000, A.D. 2019-Dec-30 00:00:00.0000,  4.419750349601513E-01,  1.189377709394500E+09,  2.355678256099653E+01,  2.139205601448148E+02,  1.865967389873640E+01, -6.622370210928848E+08,  2.121188191618112E-07,  1.404729349194582E+02,  1.625347231749377E+02,  2.131405911758026E+09,  3.073434114121553E+09,  1.697162002987487E+09,
2458848.500000000, A.D. 2019-Dec-31 00:00:00.0000,  1.522847434610625E-01,  2.193291601668320E+09,  2.752664706398724E+01,  2.140999413294342E+02,  1.515336431160671E+01, -1.015815746743388E+09,  1.586020824487309E-07,  1.611104928177139E+02,  1.658884789695958E+02,  2.587297544488131E+09,  2.981303487307942E+09,  2.269831482927548E+09,
2458849.500000000, A.D. 2020-Jan-01 00:00:00.0000,  1.982008447330380E-01,  2.868946933261043E+09,  2.502509841680495E+01,  2.139916795020431E+02,  2.176610151070910E+02,  2.511139382454281E+08,  9.751985987271871E-08,  3.355114039302193E+02,  3.234891207495651E+02,  3.578136637355046E+09,  4.287326341449049E+09,  3.691555755615994E+09,
2458850.500000000, A.D. 2020-Jan-02 00:00:00.0000,  5.215888545973086E-01,  2.793290107871063E+09,  1.871316995457480E+01,  2.135951630125097E+02,  2.153340057326618E+02,  2.018148666293489E+08,  4.678496596440551E-08,  3.505580983336349E+02,  3.261974179329201E+02,  5.838681089922929E+09,  8.884072071974794E+09,  7.694779563885796E+09,
2458851.500000000, A.D. 2020-Jan-03 00:00:00.0000,  7.653585265646127E-01,  2.751865493299662E+09,  1.027780164721754E+01,  2.123294857094126E+02,  2.162372137321752E+02,  1.832162515596009E+08,  1.643405786544657E-08,  3.569890135199793E+02,  3.265368233604860E+02,  1.172795862986020E+10,  2.070405176642073E+10,  2.190572790649095E+10,
2458852.500000000, A.D. 2020-Jan-04 00:00:00.0000,  8.901758109994676E-01,  2.756289584414032E+09,  1.060807035700333E+00,  1.871885843391626E+02,  2.396002940565334E+02,  1.679969427354220E+08,  5.249744789822186E-09,  3.591180589251687E+02,  3.282887642260907E+02,  2.509729058323090E+10,  4.743829158204777E+10,  6.857476209090034E+10,
2458853.500000000, A.D. 2020-Jan-05 00:00:00.0000,  8.752855373135442E-01,  2.803609443512218E+09,  8.257460344108724E+00,  3.850287399769854E+01,  2.445874909537716E+01,  1.505070760019291E+08,  6.192662455899637E-09,  3.590679604810956E+02,  3.320911128547602E+02,  2.248022709732358E+10,  4.215684475113494E+10,  5.813331544609452E+10,
2458854.500000000, A.D. 2020-Jan-06 00:00:00.0000,  7.181421253897022E-01,  2.878216378790570E+09,  1.640107117780088E+01,  3.677481241492153E+01,  1.975207175690611E+01,  1.237409262064992E+08,  2.022732947434931E-08,  3.574970515161600E+02,  3.385050009435789E+02,  1.021158760517174E+10,  1.754495883155291E+10,  1.779770287800589E+10,
2458855.500000000, A.D. 2020-Jan-07 00:00:00.0000,  4.432216353989500E-01,  2.950792571968255E+09,  2.270686146527822E+01,  3.628068872030679E+01,  8.624842349193417E+00,  6.339766130584016E+07,  5.409958754572629E-08,  3.565702126719904E+02,  3.501125395233058E+02,  5.299761556077332E+09,  7.648730540186408E+09,  6.654394540359836E+09,
2458856.500000000, A.D. 2020-Jan-08 00:00:00.0000,  1.416050290174766E-01,  2.884917996492279E+09,  2.615094800555513E+01,  3.610929754027233E+01,  3.205393831247076E+02, -2.715276093550757E+08,  1.071294776572826E-07,  2.908861095973993E+01,  3.836674907337489E+01,  3.360828166537586E+09,  3.836738336582893E+09,  3.360419633069380E+09,
2458857.500000000, A.D. 2020-Jan-09 00:00:00.0000,  2.943562445091653E-01,  1.757448561505419E+09,  2.497205562209642E+01,  3.616212193392048E+01,  2.166522487706011E+02, -6.990804017735686E+08,  1.679317330574180E-07,  1.173977834163114E+02,  1.422170253225223E+02,  2.490560637474876E+09,  3.223672713444333E+09,  2.143728248650369E+09,
2458858.500000000, A.D. 2020-Jan-10 00:00:00.0000,  5.336443205940359E-01,  9.745831102954937E+08,  1.621085139382284E+01,  3.677627852899864E+01,  2.000031161408837E+02, -5.615910713142318E+08,  2.184872175269354E-07,  1.227004705594172E+02,  1.582983869337788E+02,  2.089785014598516E+09,  3.204986918901539E+09,  1.647693645764969E+09,
2458859.500000000, A.D. 2020-Jan-11 00:00:00.0000,  6.248856315929213E-01,  7.326837293143594E+08,  1.365212458711874E+00,  1.948818457070431E+02,  3.700631658691742E+01, -5.208082626350326E+08,  2.417960369504713E-07,  1.259293739162111E+02,  1.632696808820546E+02,  1.953227578100241E+09,  3.173771426886123E+09,  1.488858148960238E+09,
2458860.500000000, A.D. 2020-Jan-12 00:00:00.0000,  5.379538159199077E-01,  9.345096938078097E+08,  1.858745245873383E+01,  2.137488353366763E+02,  1.819565847022689E+01, -5.865473851893197E+08,  2.294725889826079E-07,  1.345965470403722E+02,  1.632928272928089E+02,  2.022546070082508E+09,  3.110582446357206E+09,  1.568814827061044E+09,
2458861.500000000, A.D. 2020-Jan-13 00:00:00.0000,  2.979792766947020E-01,  1.634969438861537E+09,  2.670389446977412E+01,  2.142175849776018E+02,  1.852057780784120E+01, -8.054704639501474E+08,  1.857115393274867E-07,  1.495851597430067E+02,  1.625427951467908E+02,  2.328947543262927E+09,  3.022925647664316E+09,  1.938490205313361E+09,
2458862.500000000, A.D. 2020-Jan-14 00:00:00.0000,  4.451467284280439E-02,  2.888954486444160E+09,  2.678501149272116E+01,  2.142207319461622E+02,  2.475963237983515E+02,  4.931201050628051E+08,  1.255461598804712E-07,  2.980906644495103E+02,  2.934746095846176E+02,  3.023546677623520E+09,  3.158138868802879E+09,  2.867471218098151E+09,
2458863.500000000, A.D. 2020-Jan-15 00:00:00.0000,  3.787732162650692E-01,  2.825857405188312E+09,  2.198049062171473E+01,  2.139795532189901E+02,  2.152783841375626E+02,  2.151221807374965E+08,  6.803436608394790E-08,  3.453642988029280E+02,  3.260244859052796E+02,  4.548833822326095E+09,  6.271810239463877E+09,  5.291443438391039E+09,
